IRIDIUM 26              
1 24903U 97043A   25289.61111119  .00000666  00000+0  21705-3 0  9993
2 24903  86.3946  59.5641 0002230  87.8989 272.2464 14.37252798474181
IRIDIUM 22              
1 24907U 97043E   25289.64166050  .00000611  00000+0  20343-3 0  9991
2 24907  86.3943  63.1967 0002044  88.8091 271.3340 14.36053828474200
DUMMY MASS 1            
1 24925U 97048A   25289.47665175  .00000725  00000+0  77609-4 0  9993
2 24925  86.3305  79.2040 0008956  79.9611 280.2625 14.87099157523154
DUMMY MASS 2            
1 24926U 97048B   25289.66093872  .00000739  00000+0  79639-4 0  9994
2 24926  86.3304  80.7499 0009771  88.2419 271.9925 14.86850536522956
IRIDIUM 29              
1 24944U 97051A   25289.48159437  .00000683  00000+0  22592-3 0  9991
2 24944  86.3900  92.9903 0001910  91.9489 268.1927 14.36577013470681
IRIDIUM 33              
1 24946U 97051C   25289.45798183  .00000501  00000+0  16909-3 0  9991
2 24946  86.3817  92.2711 0009416  52.0202 308.1843 14.34972020470137
IRIDIUM 28              
1 24948U 97051E   25289.51773503  .00000675  00000+0  21926-3 0  9996
2 24948  86.3907  90.4192 0002516  81.1724 278.9759 14.37483278471279
